[{"OBJECT_NAME":"STARLINK-5369","OBJECT_ID":"2022-177T","EPOCH":"2026-03-09T04:46:13.073088","MEAN_MOTION":15.02534269,"ECCENTRICITY":0.00011479,"INCLINATION":43.0015,"RA_OF_ASC_NODE":135.8119,"ARG_OF_PERICENTER":273.0142,"MEAN_ANOMALY":87.0569,"EPHEMERIS_TYPE":0,"CLASSIFICATION_TYPE":"U","NORAD_CAT_ID":54837,"ELEMENT_SET_NO":999,"REV_AT_EPOCH":17688,"BSTAR":3.3648485e-5,"MEAN_MOTION_DOT":2.51e-6,"MEAN_MOTION_DDOT":0},{"OBJECT_NAME":"H-2A R\/B","OBJECT_ID":"2009-002J","EPOCH":"2026-03-09T23:38:52.170720","MEAN_MOTION":15.01829324,"ECCENTRICITY":0.00333022,"INCLINATION":98.2328,"RA_OF_ASC_NODE":87.9691,"ARG_OF_PERICENTER":111.7239,"MEAN_ANOMALY":248.7534,"EPHEMERIS_TYPE":0,"CLASSIFICATION_TYPE":"U","NORAD_CAT_ID":33500,"ELEMENT_SET_NO":999,"REV_AT_EPOCH":92943,"BSTAR":0.00033449169,"MEAN_MOTION_DOT":4.347e-5,"MEAN_MOTION_DDOT":0}]
